{
 "type": "FeatureCollection",
 "properties": {
  "source": "OpenStreetMap API 0.6 map call, bbox 98.9775,18.7795,98.9995,18.7975",
  "retrieved": "2026-10-08",
  "license": "ODbL 1.0",
  "attribution": "© OpenStreetMap contributors"
 },
 "features": [
  {
   "type": "Feature",
   "properties": {
    "osm_type": "way",
    "osm_id": 23017807,
    "osm_version": 9,
    "osm_timestamp": "2022-05-27T11:40:56Z",
    "osm_url": "https://www.openstreetmap.org/way/23017807",
    "layer": "moat-water",
    "osm_tags": {
     "intermittent": "no",
     "natural": "water",
     "salt": "no",
     "source": "bing",
     "water": "moat"
    }
   },
   "geometry": {
    "type": "Polygon",
    "coordinates": [
     [
      [
       98.9910966,
       18.7810875
      ],
      [
       98.9910429,
       18.7811221
      ],
      [
       98.9910227,
       18.7811692
      ],
      [
       98.9910256,
       18.78123
      ],
      [
       98.991067,
       18.7812645
      ],
      [
       98.9919574,
       18.7812458
      ],
      [
       98.9925483,
       18.7812336
      ],
      [
       98.9926093,
       18.7812431
      ],
      [
       98.9926727,
       18.7812565
      ],
      [
       98.9926753,
       18.7812516
      ],
      [
       98.9926776,
       18.7812481
      ],
      [
       98.9926795,
       18.7812457
      ],
      [
       98.9926812,
       18.781244
      ],
      [
       98.9926856,
       18.781243
      ],
      [
       98.9926905,
       18.781242
      ],
      [
       98.9926967,
       18.781241
      ],
      [
       98.9927039,
       18.7812399
      ],
      [
       98.9927116,
       18.7812389
      ],
      [
       98.9927195,
       18.7812382
      ],
      [
       98.9927271,
       18.7812378
      ],
      [
       98.9927341,
       18.781238
      ],
      [
       98.9927402,
       18.7812388
      ],
      [
       98.992745,
       18.78124
      ],
      [
       98.9927488,
       18.7812415
      ],
      [
       98.9927518,
       18.7812432
      ],
      [
       98.9927545,
       18.7812451
      ],
      [
       98.9927572,
       18.7812473
      ],
      [
       98.9927602,
       18.7812499
      ],
      [
       98.9927638,
       18.7812527
      ],
      [
       98.9927684,
       18.781256
      ],
      [
       98.9927742,
       18.7812595
      ],
      [
       98.9927818,
       18.7812635
      ],
      [
       98.9927894,
       18.7812698
      ],
      [
       98.9927955,
       18.7812795
      ],
      [
       98.9928003,
       18.7812918
      ],
      [
       98.9928038,
       18.7813055
      ],
      [
       98.9928064,
       18.7813199
      ],
      [
       98.9928081,
       18.7813338
      ],
      [
       98.9928092,
       18.7813463
      ],
      [
       98.9928097,
       18.7813564
      ],
      [
       98.9928099,
       18.7813633
      ],
      [
       98.9928095,
       18.7813661
      ],
      [
       98.9928065,
       18.7813681
      ],
      [
       98.9928027,
       18.7813705
      ],
      [
       98.9927991,
       18.7813777
      ],
      [
       98.9927944,
       18.7813948
      ],
      [
       98.9928295,
       18.7815353
      ],
      [
       98.9928581,
       18.7817021
      ],
      [
       98.9929048,
       18.7824598
      ],
      [
       98.9929312,
       18.7825057
      ],
      [
       98.9929862,
       18.7825177
      ],
      [
       98.9930421,
       18.7825085
      ],
      [
       98.9930833,
       18.7824685
      ],
      [
       98.9930293,
       18.7816363
      ],
      [
       98.9929783,
       18.7813147
      ],
      [
       98.9929228,
       18.7811947
      ],
      [
       98.9928627,
       18.781141
      ],
      [
       98.9927652,
       18.7811002
      ],
      [
       98.9924932,
       18.7810695
      ],
      [
       98.9910966,
       18.7810875
      ]
     ]
    ]
   }
  },
  {
   "type": "Feature",
   "properties": {
    "osm_type": "way",
    "osm_id": 23017819,
    "osm_version": 6,
    "osm_timestamp": "2022-05-27T11:40:56Z",
    "osm_url": "https://www.openstreetmap.org/way/23017819",
    "layer": "moat-water",
    "osm_tags": {
     "intermittent": "no",
     "natural": "water",
     "salt": "no",
     "water": "moat"
    }
   },
   "geometry": {
    "type": "Polygon",
    "coordinates": [
     [
      [
       98.993073,
       18.7849352
      ],
      [
       98.9931181,
       18.7849707
      ],
      [
       98.9931857,
       18.7849637
      ],
      [
       98.9932363,
       18.7849265
      ],
      [
       98.9931026,
       18.7827959
      ],
      [
       98.9930643,
       18.7827463
      ],
      [
       98.9930016,
       18.7827524
      ],
      [
       98.9929383,
       18.7828114
      ],
      [
       98.993073,
       18.7849352
      ]
     ]
    ]
   }
  },
  {
   "type": "Feature",
   "properties": {
    "osm_type": "way",
    "osm_id": 23017972,
    "osm_version": 6,
    "osm_timestamp": "2022-05-27T11:40:56Z",
    "osm_url": "https://www.openstreetmap.org/way/23017972",
    "layer": "moat-water",
    "osm_tags": {
     "intermittent": "no",
     "natural": "water",
     "salt": "no",
     "source": "bing",
     "water": "moat"
    }
   },
   "geometry": {
    "type": "Polygon",
    "coordinates": [
     [
      [
       98.9931946,
       18.7852161
      ],
      [
       98.9931548,
       18.7852319
      ],
      [
       98.9931261,
       18.7852645
      ],
      [
       98.9932234,
       18.7867239
      ],
      [
       98.9932555,
       18.7867518
      ],
      [
       98.9933033,
       18.7867622
      ],
      [
       98.9933493,
       18.7867448
      ],
      [
       98.9933692,
       18.7867057
      ],
      [
       98.9932744,
       18.7852572
      ],
      [
       98.9932408,
       18.785228
      ],
      [
       98.9931946,
       18.7852161
      ]
     ]
    ]
   }
  },
  {
   "type": "Feature",
   "properties": {
    "osm_type": "way",
    "osm_id": 23017974,
    "osm_version": 6,
    "osm_timestamp": "2022-05-27T11:40:56Z",
    "osm_url": "https://www.openstreetmap.org/way/23017974",
    "layer": "moat-water",
    "osm_tags": {
     "natural": "water",
     "water": "moat"
    }
   },
   "geometry": {
    "type": "Polygon",
    "coordinates": [
     [
      [
       98.9917226,
       18.795497
      ],
      [
       98.9917163,
       18.7953367
      ],
      [
       98.9901896,
       18.7953901
      ],
      [
       98.9901959,
       18.7955505
      ],
      [
       98.9917226,
       18.795497
      ]
     ]
    ]
   }
  },
  {
   "type": "Feature",
   "properties": {
    "osm_type": "way",
    "osm_id": 23017975,
    "osm_version": 6,
    "osm_timestamp": "2022-05-27T11:40:56Z",
    "osm_url": "https://www.openstreetmap.org/way/23017975",
    "layer": "moat-water",
    "osm_tags": {
     "natural": "water",
     "water": "moat"
    }
   },
   "geometry": {
    "type": "Polygon",
    "coordinates": [
     [
      [
       98.986749,
       18.795621
      ],
      [
       98.9867659,
       18.7956736
      ],
      [
       98.9868161,
       18.7956903
      ],
      [
       98.9899669,
       18.7955661
      ],
      [
       98.9899574,
       18.7953846
      ],
      [
       98.9867997,
       18.795485
      ],
      [
       98.9867687,
       18.795513
      ],
      [
       98.9867476,
       18.7955615
      ],
      [
       98.986749,
       18.795621
      ]
     ]
    ]
   }
  },
  {
   "type": "Feature",
   "properties": {
    "osm_type": "way",
    "osm_id": 23018009,
    "osm_version": 10,
    "osm_timestamp": "2023-09-30T05:24:06Z",
    "osm_url": "https://www.openstreetmap.org/way/23018009",
    "layer": "moat-water",
    "osm_tags": {
     "natural": "water",
     "source": "bing",
     "water": "moat"
    }
   },
   "geometry": {
    "type": "Polygon",
    "coordinates": [
     [
      [
       98.9783378,
       18.7929998
      ],
      [
       98.9782995,
       18.7929623
      ],
      [
       98.9782384,
       18.7929482
      ],
      [
       98.9781792,
       18.7929607
      ],
      [
       98.9781535,
       18.7929889
      ],
      [
       98.9781574,
       18.7930323
      ],
      [
       98.978319,
       18.7955854
      ],
      [
       98.9783422,
       18.7957255
      ],
      [
       98.9783597,
       18.795783
      ],
      [
       98.9783757,
       18.7958217
      ],
      [
       98.9784366,
       18.7958014
      ],
      [
       98.9784851,
       18.7958136
      ],
      [
       98.9785192,
       18.7958455
      ],
      [
       98.9785416,
       18.7958831
      ],
      [
       98.979912,
       18.7958508
      ],
      [
       98.9816095,
       18.7957879
      ],
      [
       98.9816082,
       18.7956425
      ],
      [
       98.9815913,
       18.795643
      ],
      [
       98.9787042,
       18.795781
      ],
      [
       98.9785932,
       18.7957849
      ],
      [
       98.978514,
       18.7957719
      ],
      [
       98.9784772,
       18.7957348
      ],
      [
       98.9784552,
       18.7956792
      ],
      [
       98.9784142,
       18.7949851
      ],
      [
       98.9784117,
       18.7949427
      ],
      [
       98.9783378,
       18.7929998
      ]
     ]
    ]
   }
  },
  {
   "type": "Feature",
   "properties": {
    "osm_type": "way",
    "osm_id": 23018037,
    "osm_version": 6,
    "osm_timestamp": "2022-05-27T11:40:56Z",
    "osm_url": "https://www.openstreetmap.org/way/23018037",
    "layer": "moat-water",
    "osm_tags": {
     "natural": "water",
     "source": "bing",
     "water": "moat"
    }
   },
   "geometry": {
    "type": "Polygon",
    "coordinates": [
     [
      [
       98.9782453,
       18.7927653
      ],
      [
       98.978303,
       18.7927553
      ],
      [
       98.9783307,
       18.792722
      ],
      [
       98.978296,
       18.7915827
      ],
      [
       98.9782661,
       18.791537
      ],
      [
       98.9782022,
       18.7915235
      ],
      [
       98.978133,
       18.7915455
      ],
      [
       98.9781063,
       18.791593
      ],
      [
       98.9781525,
       18.7927182
      ],
      [
       98.9782055,
       18.792761
      ],
      [
       98.9782453,
       18.7927653
      ]
     ]
    ]
   }
  },
  {
   "type": "Feature",
   "properties": {
    "osm_type": "way",
    "osm_id": 55692112,
    "osm_version": 5,
    "osm_timestamp": "2022-05-27T11:40:56Z",
    "osm_url": "https://www.openstreetmap.org/way/55692112",
    "layer": "moat-water",
    "osm_tags": {
     "natural": "water",
     "source": "bing",
     "water": "moat"
    }
   },
   "geometry": {
    "type": "Polygon",
    "coordinates": [
     [
      [
       98.9842045,
       18.7955329
      ],
      [
       98.9842149,
       18.7957064
      ],
      [
       98.9862901,
       18.7956522
      ],
      [
       98.9862897,
       18.7954964
      ],
      [
       98.9842045,
       18.7955329
      ]
     ]
    ]
   }
  },
  {
   "type": "Feature",
   "properties": {
    "osm_type": "way",
    "osm_id": 87481337,
    "osm_version": 3,
    "osm_timestamp": "2022-05-27T11:40:56Z",
    "osm_url": "https://www.openstreetmap.org/way/87481337",
    "layer": "moat-water",
    "osm_tags": {
     "intermittent": "no",
     "natural": "water",
     "salt": "no",
     "source": "bing",
     "water": "moat"
    }
   },
   "geometry": {
    "type": "Polygon",
    "coordinates": [
     [
      [
       98.9934314,
       18.7902532
      ],
      [
       98.9936162,
       18.7902425
      ],
      [
       98.9935108,
       18.7884435
      ],
      [
       98.9933191,
       18.7884504
      ],
      [
       98.9933799,
       18.7893848
      ],
      [
       98.9934314,
       18.7902532
      ]
     ]
    ]
   }
  },
  {
   "type": "Feature",
   "properties": {
    "osm_type": "way",
    "osm_id": 87496490,
    "osm_version": 4,
    "osm_timestamp": "2022-05-27T11:40:56Z",
    "osm_url": "https://www.openstreetmap.org/way/87496490",
    "layer": "moat-water",
    "osm_tags": {
     "natural": "water",
     "source": "bing",
     "water": "moat"
    }
   },
   "geometry": {
    "type": "Polygon",
    "coordinates": [
     [
      [
       98.9936441,
       18.7908239
      ],
      [
       98.9936249,
       18.7907884
      ],
      [
       98.9935989,
       18.7907721
      ],
      [
       98.9935405,
       18.7907745
      ],
      [
       98.9935083,
       18.7907965
      ],
      [
       98.9934885,
       18.79083
      ],
      [
       98.9935303,
       18.7915832
      ],
      [
       98.9935604,
       18.7924447
      ],
      [
       98.9935899,
       18.7924764
      ],
      [
       98.9936306,
       18.7924909
      ],
      [
       98.9936751,
       18.7924881
      ],
      [
       98.9937035,
       18.7924691
      ],
      [
       98.9937206,
       18.7924359
      ],
      [
       98.9936441,
       18.7908239
      ]
     ]
    ]
   }
  },
  {
   "type": "Feature",
   "properties": {
    "osm_type": "way",
    "osm_id": 87504469,
    "osm_version": 6,
    "osm_timestamp": "2023-09-30T12:04:41Z",
    "osm_url": "https://www.openstreetmap.org/way/87504469",
    "layer": "moat-water",
    "osm_tags": {
     "natural": "water",
     "source": "bing",
     "water": "moat"
    }
   },
   "geometry": {
    "type": "Polygon",
    "coordinates": [
     [
      [
       98.9937868,
       18.7934181
      ],
      [
       98.9937545,
       18.7927138
      ],
      [
       98.9937423,
       18.7926758
      ],
      [
       98.9937217,
       18.7926504
      ],
      [
       98.9936895,
       18.7926384
      ],
      [
       98.9936599,
       18.7926349
      ],
      [
       98.99363,
       18.7926366
      ],
      [
       98.9936077,
       18.7926475
      ],
      [
       98.9937084,
       18.7947034
      ],
      [
       98.9937204,
       18.7950486
      ],
      [
       98.9937399,
       18.7951844
      ],
      [
       98.9937526,
       18.7952092
      ],
      [
       98.993707,
       18.7952885
      ],
      [
       98.9934971,
       18.7952955
      ],
      [
       98.993325,
       18.7952879
      ],
      [
       98.9919631,
       18.7953311
      ],
      [
       98.9919694,
       18.7954842
      ],
      [
       98.9937586,
       18.7954069
      ],
      [
       98.993802,
       18.7953819
      ],
      [
       98.9938208,
       18.7953686
      ],
      [
       98.9938364,
       18.795352
      ],
      [
       98.9938492,
       18.7953307
      ],
      [
       98.9938567,
       18.7953073
      ],
      [
       98.9938587,
       18.7952829
      ],
      [
       98.9938549,
       18.7952587
      ],
      [
       98.9938541,
       18.7952365
      ],
      [
       98.9937868,
       18.7934181
      ]
     ]
    ]
   }
  },
  {
   "type": "Feature",
   "properties": {
    "osm_type": "way",
    "osm_id": 93180078,
    "osm_version": 4,
    "osm_timestamp": "2023-09-29T14:24:15Z",
    "osm_url": "https://www.openstreetmap.org/way/93180078",
    "layer": "moat-water",
    "osm_tags": {
     "natural": "water",
     "source": "bing",
     "water": "moat"
    }
   },
   "geometry": {
    "type": "Polygon",
    "coordinates": [
     [
      [
       98.9780739,
       18.7884747
      ],
      [
       98.9780836,
       18.7884417
      ],
      [
       98.9780121,
       18.7858935
      ],
      [
       98.977998,
       18.7858559
      ],
      [
       98.9779699,
       18.7858338
      ],
      [
       98.9779078,
       18.7858295
      ],
      [
       98.9778621,
       18.7858402
      ],
      [
       98.9778098,
       18.7858793
      ],
      [
       98.9779473,
       18.7884785
      ],
      [
       98.9780739,
       18.7884747
      ]
     ]
    ]
   }
  },
  {
   "type": "Feature",
   "properties": {
    "osm_type": "way",
    "osm_id": 93180079,
    "osm_version": 3,
    "osm_timestamp": "2023-09-29T11:09:54Z",
    "osm_url": "https://www.openstreetmap.org/way/93180079",
    "layer": "moat-water",
    "osm_tags": {
     "natural": "water",
     "source": "bing",
     "water": "moat"
    }
   },
   "geometry": {
    "type": "Polygon",
    "coordinates": [
     [
      [
       98.9880014,
       18.7813448
      ],
      [
       98.987995,
       18.7811747
      ],
      [
       98.9868306,
       18.7812193
      ],
      [
       98.9855543,
       18.7812496
      ],
      [
       98.9855122,
       18.7812635
      ],
      [
       98.9855009,
       18.7813151
      ],
      [
       98.985522,
       18.7813711
      ],
      [
       98.9855697,
       18.7813981
      ],
      [
       98.9871782,
       18.7813726
      ],
      [
       98.9880014,
       18.7813448
      ]
     ]
    ]
   }
  },
  {
   "type": "Feature",
   "properties": {
    "osm_type": "way",
    "osm_id": 93180080,
    "osm_version": 2,
    "osm_timestamp": "2022-05-27T11:40:56Z",
    "osm_url": "https://www.openstreetmap.org/way/93180080",
    "layer": "moat-water",
    "osm_tags": {
     "natural": "water",
     "source": "bing",
     "water": "moat"
    }
   },
   "geometry": {
    "type": "Polygon",
    "coordinates": [
     [
      [
       98.9852932,
       18.7814005
      ],
      [
       98.9853268,
       18.7813692
      ],
      [
       98.9853436,
       18.7813123
      ],
      [
       98.985325,
       18.7812637
      ],
      [
       98.9852863,
       18.7812389
      ],
      [
       98.9818161,
       18.781321
      ],
      [
       98.9817974,
       18.7813494
      ],
      [
       98.9817873,
       18.7813873
      ],
      [
       98.9818083,
       18.781433
      ],
      [
       98.9818665,
       18.7814646
      ],
      [
       98.9852932,
       18.7814005
      ]
     ]
    ]
   }
  },
  {
   "type": "Feature",
   "properties": {
    "osm_type": "way",
    "osm_id": 93180081,
    "osm_version": 2,
    "osm_timestamp": "2022-05-27T11:40:56Z",
    "osm_url": "https://www.openstreetmap.org/way/93180081",
    "layer": "moat-water",
    "osm_tags": {
     "intermittent": "no",
     "natural": "water",
     "source": "bing",
     "water": "moat",
     "waterway": "moat"
    }
   },
   "geometry": {
    "type": "Polygon",
    "coordinates": [
     [
      [
       98.990823,
       18.7812855
      ],
      [
       98.9908673,
       18.7812557
      ],
      [
       98.990884,
       18.7811996
      ],
      [
       98.9908665,
       18.7811338
      ],
      [
       98.9908311,
       18.7811116
      ],
      [
       98.989317,
       18.7811695
      ],
      [
       98.9893244,
       18.7813173
      ],
      [
       98.990823,
       18.7812855
      ]
     ]
    ]
   }
  },
  {
   "type": "Feature",
   "properties": {
    "osm_type": "way",
    "osm_id": 93180082,
    "osm_version": 2,
    "osm_timestamp": "2022-05-27T11:40:56Z",
    "osm_url": "https://www.openstreetmap.org/way/93180082",
    "layer": "moat-water",
    "osm_tags": {
     "natural": "water",
     "source": "bing",
     "water": "moat"
    }
   },
   "geometry": {
    "type": "Polygon",
    "coordinates": [
     [
      [
       98.978179,
       18.791389
      ],
      [
       98.9782291,
       18.7913741
      ],
      [
       98.9782618,
       18.7913395
      ],
      [
       98.9781494,
       18.7892156
      ],
      [
       98.9781394,
       18.7891716
      ],
      [
       98.9780617,
       18.7891616
      ],
      [
       98.9779872,
       18.7891782
      ],
      [
       98.9779817,
       18.7892202
      ],
      [
       98.9781004,
       18.7913351
      ],
      [
       98.9781322,
       18.7913773
      ],
      [
       98.978179,
       18.791389
      ]
     ]
    ]
   }
  },
  {
   "type": "Feature",
   "properties": {
    "osm_type": "way",
    "osm_id": 93180083,
    "osm_version": 7,
    "osm_timestamp": "2023-09-29T05:49:38Z",
    "osm_url": "https://www.openstreetmap.org/way/93180083",
    "layer": "moat-water",
    "osm_tags": {
     "natural": "water",
     "source": "bing",
     "water": "moat"
    }
   },
   "geometry": {
    "type": "Polygon",
    "coordinates": [
     [
      [
       98.9779604,
       18.7814477
      ],
      [
       98.9779012,
       18.7814562
      ],
      [
       98.9778001,
       18.7814949
      ],
      [
       98.9777197,
       18.7815748
      ],
      [
       98.9776675,
       18.7816547
      ],
      [
       98.9776253,
       18.7817537
      ],
      [
       98.9776045,
       18.7819397
      ],
      [
       98.9777929,
       18.7855347
      ],
      [
       98.9778135,
       18.7855878
      ],
      [
       98.9778704,
       18.7856285
      ],
      [
       98.9779086,
       18.7856323
      ],
      [
       98.9779648,
       18.7856266
      ],
      [
       98.9779996,
       18.7855939
      ],
      [
       98.9777807,
       18.7820818
      ],
      [
       98.977764,
       18.7819859
      ],
      [
       98.9777609,
       18.7818738
      ],
      [
       98.9777807,
       18.7817808
      ],
      [
       98.9778214,
       18.7816913
      ],
      [
       98.9778302,
       18.7816415
      ],
      [
       98.977845,
       18.7816116
      ],
      [
       98.9778828,
       18.7815803
      ],
      [
       98.9779541,
       18.7815593
      ],
      [
       98.9779885,
       18.7815561
      ],
      [
       98.9780094,
       18.7815468
      ],
      [
       98.9780249,
       18.7815308
      ],
      [
       98.9780327,
       18.7815103
      ],
      [
       98.9780317,
       18.7814886
      ],
      [
       98.978022,
       18.7814688
      ],
      [
       98.978005,
       18.7814541
      ],
      [
       98.9779834,
       18.7814467
      ],
      [
       98.9779604,
       18.7814477
      ]
     ]
    ]
   }
  },
  {
   "type": "Feature",
   "properties": {
    "osm_type": "way",
    "osm_id": 130774571,
    "osm_version": 4,
    "osm_timestamp": "2022-05-27T11:40:56Z",
    "osm_url": "https://www.openstreetmap.org/way/130774571",
    "layer": "moat-water",
    "osm_tags": {
     "natural": "water",
     "source": "bing",
     "water": "moat"
    }
   },
   "geometry": {
    "type": "Polygon",
    "coordinates": [
     [
      [
       98.9840195,
       18.7957077
      ],
      [
       98.9840186,
       18.7955774
      ],
      [
       98.9827745,
       18.7956147
      ],
      [
       98.9818299,
       18.7956372
      ],
      [
       98.9818241,
       18.7957752
      ],
      [
       98.98281,
       18.7957513
      ],
      [
       98.983363,
       18.795727
      ],
      [
       98.9840195,
       18.7957077
      ]
     ]
    ]
   }
  },
  {
   "type": "Feature",
   "properties": {
    "osm_type": "way",
    "osm_id": 336059995,
    "osm_version": 3,
    "osm_timestamp": "2022-05-27T11:40:56Z",
    "osm_url": "https://www.openstreetmap.org/way/336059995",
    "layer": "moat-water",
    "osm_tags": {
     "natural": "water",
     "source": "bing",
     "water": "moat"
    }
   },
   "geometry": {
    "type": "Polygon",
    "coordinates": [
     [
      [
       98.9782005,
       18.7815476
      ],
      [
       98.9813243,
       18.7814759
      ],
      [
       98.9813424,
       18.7814341
      ],
      [
       98.9813504,
       18.7814055
      ],
      [
       98.9813391,
       18.7813725
      ],
      [
       98.9813119,
       18.7813486
      ],
      [
       98.9781947,
       18.7814455
      ],
      [
       98.9781743,
       18.7814504
      ],
      [
       98.9781574,
       18.7814624
      ],
      [
       98.9781467,
       18.7814795
      ],
      [
       98.9781437,
       18.7814993
      ],
      [
       98.9781489,
       18.7815186
      ],
      [
       98.9781615,
       18.7815346
      ],
      [
       98.9781796,
       18.7815447
      ],
      [
       98.9782005,
       18.7815476
      ]
     ]
    ]
   }
  },
  {
   "type": "Feature",
   "properties": {
    "osm_type": "node",
    "osm_id": 1017379824,
    "osm_version": 15,
    "osm_timestamp": "2025-12-19T09:42:30Z",
    "osm_url": "https://www.openstreetmap.org/node/1017379824",
    "layer": "osm-city-gate",
    "osm_tags": {
     "access": "yes",
     "entrance": "yes",
     "historic": "city_gate",
     "name": "ประตูท่าแพ",
     "name:de": "Tha Phae Tor",
     "name:en": "Thapae Gate",
     "name:ja": "ターペア都門",
     "name:ko": "타패 게이트",
     "name:th": "ประตูท่าแพ",
     "name:zh": "塔佩门",
     "tourism": "attraction"
    }
   },
   "geometry": {
    "type": "Point",
    "coordinates": [
     98.9932697,
     18.7877625
    ]
   }
  },
  {
   "type": "Feature",
   "properties": {
    "osm_type": "node",
    "osm_id": 6107975995,
    "osm_version": 7,
    "osm_timestamp": "2025-07-08T08:54:09Z",
    "osm_url": "https://www.openstreetmap.org/node/6107975995",
    "layer": "osm-city-gate",
    "osm_tags": {
     "historic": "city_gate",
     "name": "ประตูเชียงใหม่",
     "name:en": "Chiang Mai Gate",
     "name:ja": "チェンマイ門",
     "name:th": "ประตูเชียงใหม่",
     "name:zh-Hans": "清迈门"
    }
   },
   "geometry": {
    "type": "Point",
    "coordinates": [
     98.9889812,
     18.7813553
    ]
   }
  },
  {
   "type": "Feature",
   "properties": {
    "osm_type": "node",
    "osm_id": 6717438786,
    "osm_version": 4,
    "osm_timestamp": "2025-07-08T08:54:09Z",
    "osm_url": "https://www.openstreetmap.org/node/6717438786",
    "layer": "osm-city-gate",
    "osm_tags": {
     "historic": "city_gate",
     "name": "ประตูสวนดอก",
     "name:en": "Suan Dok Gate",
     "name:th": "ประตูสวนดอก"
    }
   },
   "geometry": {
    "type": "Point",
    "coordinates": [
     98.9781922,
     18.7888357
    ]
   }
  },
  {
   "type": "Feature",
   "properties": {
    "osm_type": "node",
    "osm_id": 11226724529,
    "osm_version": 2,
    "osm_timestamp": "2025-07-08T08:54:09Z",
    "osm_url": "https://www.openstreetmap.org/node/11226724529",
    "layer": "osm-city-gate",
    "osm_tags": {
     "historic": "city_gate",
     "name": "ประตูแสนปุง",
     "name:en": "Saen Pung Gate",
     "name:th": "ประตูแสนปุง"
    }
   },
   "geometry": {
    "type": "Point",
    "coordinates": [
     98.9815967,
     18.7815449
    ]
   }
  },
  {
   "type": "Feature",
   "properties": {
    "osm_type": "node",
    "osm_id": 11229077788,
    "osm_version": 3,
    "osm_timestamp": "2025-12-19T09:42:31Z",
    "osm_url": "https://www.openstreetmap.org/node/11229077788",
    "layer": "osm-city-gate",
    "osm_tags": {
     "historic": "city_gate",
     "name": "ประตูช้างเผือก",
     "name:de": "Chang Phueak Tor",
     "name:en": "Chang Phueak Gate",
     "name:th": "ประตูช้างเผือก"
    }
   },
   "geometry": {
    "type": "Point",
    "coordinates": [
     98.9865942,
     18.7954331
    ]
   }
  },
  {
   "type": "Feature",
   "properties": {
    "osm_type": "way",
    "osm_id": 24871597,
    "osm_version": 12,
    "osm_timestamp": "2023-10-02T07:15:50Z",
    "osm_url": "https://www.openstreetmap.org/way/24871597",
    "layer": "osm-city-wall",
    "osm_tags": {
     "barrier": "city_wall"
    }
   },
   "geometry": {
    "type": "Polygon",
    "coordinates": [
     [
      [
       98.9864557,
       18.7954022
      ],
      [
       98.9859462,
       18.7954147
      ],
      [
       98.9859477,
       18.7954685
      ],
      [
       98.9864572,
       18.795456
      ],
      [
       98.9864557,
       18.7954022
      ]
     ]
    ]
   }
  },
  {
   "type": "Feature",
   "properties": {
    "osm_type": "way",
    "osm_id": 97191493,
    "osm_version": 4,
    "osm_timestamp": "2023-09-30T15:03:27Z",
    "osm_url": "https://www.openstreetmap.org/way/97191493",
    "layer": "osm-city-wall",
    "osm_tags": {
     "barrier": "city_wall"
    }
   },
   "geometry": {
    "type": "Polygon",
    "coordinates": [
     [
      [
       98.9867564,
       18.7954472
      ],
      [
       98.9871447,
       18.7954375
      ],
      [
       98.9871433,
       18.7953884
      ],
      [
       98.9867551,
       18.795398
      ],
      [
       98.9867564,
       18.7954472
      ]
     ]
    ]
   }
  },
  {
   "type": "Feature",
   "properties": {
    "osm_type": "way",
    "osm_id": 263459882,
    "osm_version": 9,
    "osm_timestamp": "2025-12-19T09:42:32Z",
    "osm_url": "https://www.openstreetmap.org/way/263459882",
    "layer": "osm-city-wall",
    "osm_tags": {
     "barrier": "city_wall",
     "historic": "ruins",
     "name": "แจ่งศรีภูมิ",
     "name:en": "Chaeng Siphum",
     "name:ja": "シープーム角",
     "name:th": "แจ่งศรีภูมิ",
     "ruins": "yes",
     "source": "Bing;local knowledge;Esri"
    }
   },
   "geometry": {
    "type": "Polygon",
    "coordinates": [
     [
      [
       98.9930934,
       18.7952412
      ],
      [
       98.9934126,
       18.7952334
      ],
      [
       98.9934971,
       18.7952955
      ],
      [
       98.993707,
       18.7952885
      ],
      [
       98.9937526,
       18.7952092
      ],
      [
       98.9937399,
       18.7951844
      ],
      [
       98.9936782,
       18.795166
      ],
      [
       98.9936579,
       18.7947054
      ],
      [
       98.9936132,
       18.7947065
      ],
      [
       98.9936019,
       18.7949775
      ],
      [
       98.9936033,
       18.7950875
      ],
      [
       98.9936057,
       18.79516
      ],
      [
       98.9935965,
       18.7951857
      ],
      [
       98.9930915,
       18.7952062
      ],
      [
       98.9930934,
       18.7952412
      ]
     ]
    ]
   }
  },
  {
   "type": "Feature",
   "properties": {
    "osm_type": "way",
    "osm_id": 263464174,
    "osm_version": 4,
    "osm_timestamp": "2016-04-07T11:56:12Z",
    "osm_url": "https://www.openstreetmap.org/way/263464174",
    "layer": "osm-city-wall",
    "osm_tags": {
     "barrier": "city_wall"
    }
   },
   "geometry": {
    "type": "Polygon",
    "coordinates": [
     [
      [
       98.9932146,
       18.7877417
      ],
      [
       98.9931653,
       18.7868867
      ],
      [
       98.9932098,
       18.7868844
      ],
      [
       98.9932591,
       18.7877394
      ],
      [
       98.9932146,
       18.7877417
      ]
     ]
    ]
   }
  },
  {
   "type": "Feature",
   "properties": {
    "osm_type": "way",
    "osm_id": 263464175,
    "osm_version": 4,
    "osm_timestamp": "2016-04-07T11:56:12Z",
    "osm_url": "https://www.openstreetmap.org/way/263464175",
    "layer": "osm-city-wall",
    "osm_tags": {
     "barrier": "city_wall"
    }
   },
   "geometry": {
    "type": "Polygon",
    "coordinates": [
     [
      [
       98.9932952,
       18.7883788
      ],
      [
       98.9932545,
       18.7883809
      ],
      [
       98.9932207,
       18.7877886
      ],
      [
       98.9932614,
       18.7877865
      ],
      [
       98.9932952,
       18.7883788
      ]
     ]
    ]
   }
  },
  {
   "type": "Feature",
   "properties": {
    "osm_type": "way",
    "osm_id": 317516851,
    "osm_version": 4,
    "osm_timestamp": "2020-08-16T15:39:44Z",
    "osm_url": "https://www.openstreetmap.org/way/317516851",
    "layer": "osm-city-wall",
    "osm_tags": {
     "area": "yes",
     "barrier": "city_wall",
     "historic": "yes",
     "name": "แจ่งกู่เฮือง",
     "name:en": "Chaeng Ku Hueang",
     "name:th": "แจ่งกู่เฮือง",
     "source": "Bing, personal_knowledge"
    }
   },
   "geometry": {
    "type": "Polygon",
    "coordinates": [
     [
      [
       98.9778355,
       18.7820995
      ],
      [
       98.9778603,
       18.7820984
      ],
      [
       98.9778752,
       18.7819997
      ],
      [
       98.9778839,
       18.781887
      ],
      [
       98.9779297,
       18.7817917
      ],
      [
       98.9779945,
       18.7817229
      ],
      [
       98.9780685,
       18.7816968
      ],
      [
       98.9782659,
       18.7816686
      ],
      [
       98.9784018,
       18.7816575
      ],
      [
       98.9783928,
       18.7816343
      ],
      [
       98.9782293,
       18.7816386
      ],
      [
       98.9780653,
       18.7816615
      ],
      [
       98.9780611,
       18.7816378
      ],
      [
       98.9780496,
       18.7816088
      ],
      [
       98.9780389,
       18.7815916
      ],
      [
       98.9780163,
       18.7815803
      ],
      [
       98.977989,
       18.7815771
      ],
      [
       98.9779304,
       18.7815809
      ],
      [
       98.9778798,
       18.7816027
      ],
      [
       98.9778538,
       18.7816272
      ],
      [
       98.9778457,
       18.7816479
      ],
      [
       98.9778482,
       18.7816747
      ],
      [
       98.9778619,
       18.7816983
      ],
      [
       98.9779142,
       18.7817357
      ],
      [
       98.9779071,
       18.7817449
      ],
      [
       98.977895,
       18.7817625
      ],
      [
       98.9778578,
       18.7818377
      ],
      [
       98.9778355,
       18.7819434
      ],
      [
       98.9778355,
       18.7820995
      ]
     ]
    ]
   }
  },
  {
   "type": "Feature",
   "properties": {
    "osm_type": "way",
    "osm_id": 317516852,
    "osm_version": 7,
    "osm_timestamp": "2025-11-26T05:04:19Z",
    "osm_url": "https://www.openstreetmap.org/way/317516852",
    "layer": "osm-city-wall",
    "osm_tags": {
     "attraction": "historic",
     "barrier": "city_wall",
     "historic": "ruins",
     "material": "brick",
     "name": "แจ่งหัวลิน",
     "name:en": "Chaeng Hua Lin",
     "name:th": "แจ่งหัวลิน"
    }
   },
   "geometry": {
    "type": "Polygon",
    "coordinates": [
     [
      [
       98.9814278,
       18.7955976
      ],
      [
       98.981425,
       18.795572
      ],
      [
       98.9807034,
       18.7955886
      ],
      [
       98.9797781,
       18.7956115
      ],
      [
       98.9790361,
       18.7956284
      ],
      [
       98.9788917,
       18.7956307
      ],
      [
       98.9787843,
       18.795625
      ],
      [
       98.978708,
       18.7956104
      ],
      [
       98.9786436,
       18.7955753
      ],
      [
       98.9785804,
       18.7955098
      ],
      [
       98.9785469,
       18.7954556
      ],
      [
       98.9785374,
       18.7953879
      ],
      [
       98.9785028,
       18.7950152
      ],
      [
       98.9784619,
       18.7950153
      ],
      [
       98.9784749,
       18.7952351
      ],
      [
       98.978479,
       18.7953709
      ],
      [
       98.9785056,
       18.795504
      ],
      [
       98.9785517,
       18.7955833
      ],
      [
       98.978504,
       18.7956329
      ],
      [
       98.9785344,
       18.7957015
      ],
      [
       98.9785936,
       18.7957148
      ],
      [
       98.9786282,
       18.7957058
      ],
      [
       98.9786604,
       18.7956719
      ],
      [
       98.9787169,
       18.7956909
      ],
      [
       98.9792773,
       18.7956616
      ],
      [
       98.9814278,
       18.7955976
      ]
     ]
    ]
   }
  },
  {
   "type": "Feature",
   "properties": {
    "osm_type": "way",
    "osm_id": 323670037,
    "osm_version": 3,
    "osm_timestamp": "2017-02-09T10:14:25Z",
    "osm_url": "https://www.openstreetmap.org/way/323670037",
    "layer": "osm-city-wall",
    "osm_tags": {
     "area": "yes",
     "barrier": "city_wall",
     "historic": "yes",
     "name": "ประตูสวนดอก",
     "name:en": "Suan Dok Gate",
     "name:ja": "スアンドーク門",
     "name:th": "ประตูสวนดอก"
    }
   },
   "geometry": {
    "type": "Polygon",
    "coordinates": [
     [
      [
       98.9781812,
       18.7890958
      ],
      [
       98.9782404,
       18.789093
      ],
      [
       98.978232,
       18.7889351
      ],
      [
       98.9781728,
       18.7889379
      ],
      [
       98.9781812,
       18.7890958
      ]
     ]
    ]
   }
  },
  {
   "type": "Feature",
   "properties": {
    "osm_type": "way",
    "osm_id": 330870295,
    "osm_version": 2,
    "osm_timestamp": "2017-02-09T10:14:25Z",
    "osm_url": "https://www.openstreetmap.org/way/330870295",
    "layer": "osm-city-wall",
    "osm_tags": {
     "area": "yes",
     "barrier": "city_wall",
     "historic": "yes"
    }
   },
   "geometry": {
    "type": "Polygon",
    "coordinates": [
     [
      [
       98.9890557,
       18.7814007
      ],
      [
       98.98944,
       18.7813841
      ],
      [
       98.989438,
       18.7813406
      ],
      [
       98.9890536,
       18.7813572
      ],
      [
       98.9890557,
       18.7814007
      ]
     ]
    ]
   }
  },
  {
   "type": "Feature",
   "properties": {
    "osm_type": "way",
    "osm_id": 330870296,
    "osm_version": 2,
    "osm_timestamp": "2017-02-09T10:14:25Z",
    "osm_url": "https://www.openstreetmap.org/way/330870296",
    "layer": "osm-city-wall",
    "osm_tags": {
     "area": "yes",
     "barrier": "city_wall",
     "historic": "yes"
    }
   },
   "geometry": {
    "type": "Polygon",
    "coordinates": [
     [
      [
       98.9886739,
       18.7813978
      ],
      [
       98.9888923,
       18.7813949
      ],
      [
       98.9888917,
       18.7813537
      ],
      [
       98.9886733,
       18.7813566
      ],
      [
       98.9886739,
       18.7813978
      ]
     ]
    ]
   }
  },
  {
   "type": "Feature",
   "properties": {
    "osm_type": "way",
    "osm_id": 473546718,
    "osm_version": 1,
    "osm_timestamp": "2017-02-09T10:14:14Z",
    "osm_url": "https://www.openstreetmap.org/way/473546718",
    "layer": "osm-city-wall",
    "osm_tags": {
     "area": "yes",
     "barrier": "city_wall",
     "historic": "yes",
     "name": "ประตูสวนดอก",
     "name:en": "Suan Dok Gate",
     "name:ja": "スアンドーク門",
     "name:th": "ประตูสวนดอก"
    }
   },
   "geometry": {
    "type": "Polygon",
    "coordinates": [
     [
      [
       98.9781705,
       18.7887341
      ],
      [
       98.978151,
       18.7883334
      ],
      [
       98.9782059,
       18.788331
      ],
      [
       98.9782254,
       18.7887317
      ],
      [
       98.9781705,
       18.7887341
      ]
     ]
    ]
   }
  },
  {
   "type": "Feature",
   "properties": {
    "osm_type": "way",
    "osm_id": 791602197,
    "osm_version": 8,
    "osm_timestamp": "2025-11-26T05:04:04Z",
    "osm_url": "https://www.openstreetmap.org/way/791602197",
    "layer": "osm-city-wall",
    "osm_tags": {
     "barrier": "city_wall",
     "historic": "ruins",
     "level": "3",
     "name": "แจ่งก๊ะต๊ำ",
     "name:en": "Chaeng Katam",
     "name:th": "แจ่งก๊ะต๊ำ"
    }
   },
   "geometry": {
    "type": "Polygon",
    "coordinates": [
     [
      [
       98.992782,
       18.7814518
      ],
      [
       98.9927879,
       18.7814699
      ],
      [
       98.9927986,
       18.7815132
      ],
      [
       98.9928076,
       18.7815641
      ],
      [
       98.9928019,
       18.7815905
      ],
      [
       98.9927831,
       18.7816095
      ],
      [
       98.9927705,
       18.7815676
      ],
      [
       98.9927561,
       18.7815306
      ],
      [
       98.9927406,
       18.7814984
      ],
      [
       98.9927248,
       18.7814708
      ],
      [
       98.9927094,
       18.7814477
      ],
      [
       98.9926952,
       18.7814291
      ],
      [
       98.9926828,
       18.7814148
      ],
      [
       98.9926731,
       18.7814048
      ],
      [
       98.9926624,
       18.7813944
      ],
      [
       98.9926565,
       18.7813879
      ],
      [
       98.9926469,
       18.7813783
      ],
      [
       98.9926338,
       18.7813666
      ],
      [
       98.9926173,
       18.781354
      ],
      [
       98.9925976,
       18.7813414
      ],
      [
       98.992575,
       18.78133
      ],
      [
       98.9925495,
       18.7813208
      ],
      [
       98.9925213,
       18.7813148
      ],
      [
       98.9924907,
       18.781313
      ],
      [
       98.9924941,
       18.7812794
      ],
      [
       98.9925346,
       18.7812775
      ],
      [
       98.992572,
       18.7812801
      ],
      [
       98.992606,
       18.7812863
      ],
      [
       98.9926286,
       18.7812927
      ],
      [
       98.9926319,
       18.7812917
      ],
      [
       98.9926617,
       18.7813029
      ],
      [
       98.9926727,
       18.7812565
      ],
      [
       98.9926753,
       18.7812516
      ],
      [
       98.9926776,
       18.7812481
      ],
      [
       98.9926795,
       18.7812457
      ],
      [
       98.9926812,
       18.781244
      ],
      [
       98.9926856,
       18.781243
      ],
      [
       98.9926905,
       18.781242
      ],
      [
       98.9926967,
       18.781241
      ],
      [
       98.9927039,
       18.7812399
      ],
      [
       98.9927116,
       18.7812389
      ],
      [
       98.9927195,
       18.7812382
      ],
      [
       98.9927271,
       18.7812378
      ],
      [
       98.9927341,
       18.781238
      ],
      [
       98.9927402,
       18.7812388
      ],
      [
       98.992745,
       18.78124
      ],
      [
       98.9927488,
       18.7812415
      ],
      [
       98.9927518,
       18.7812432
      ],
      [
       98.9927545,
       18.7812451
      ],
      [
       98.9927572,
       18.7812473
      ],
      [
       98.9927602,
       18.7812499
      ],
      [
       98.9927638,
       18.7812527
      ],
      [
       98.9927684,
       18.781256
      ],
      [
       98.9927742,
       18.7812595
      ],
      [
       98.9927818,
       18.7812635
      ],
      [
       98.9927894,
       18.7812698
      ],
      [
       98.9927955,
       18.7812795
      ],
      [
       98.9928003,
       18.7812918
      ],
      [
       98.9928038,
       18.7813055
      ],
      [
       98.9928064,
       18.7813199
      ],
      [
       98.9928081,
       18.7813338
      ],
      [
       98.9928092,
       18.7813463
      ],
      [
       98.9928097,
       18.7813564
      ],
      [
       98.9928099,
       18.7813633
      ],
      [
       98.9928095,
       18.7813661
      ],
      [
       98.9928065,
       18.7813681
      ],
      [
       98.9928027,
       18.7813705
      ],
      [
       98.9927643,
       18.7813829
      ],
      [
       98.992782,
       18.7814518
      ]
     ]
    ]
   }
  },
  {
   "type": "Feature",
   "properties": {
    "osm_type": "way",
    "osm_id": 1211639140,
    "osm_version": 2,
    "osm_timestamp": "2023-09-29T11:09:54Z",
    "osm_url": "https://www.openstreetmap.org/way/1211639140",
    "layer": "osm-city-wall",
    "osm_tags": {
     "area": "yes",
     "barrier": "city_wall"
    }
   },
   "geometry": {
    "type": "Polygon",
    "coordinates": [
     [
      [
       98.9814885,
       18.781585
      ],
      [
       98.9814877,
       18.7815377
      ],
      [
       98.9812313,
       18.7815416
      ],
      [
       98.9812321,
       18.7815889
      ],
      [
       98.9814885,
       18.781585
      ]
     ]
    ]
   }
  },
  {
   "type": "Feature",
   "properties": {
    "osm_type": "way",
    "osm_id": 1211639141,
    "osm_version": 2,
    "osm_timestamp": "2023-09-29T11:09:54Z",
    "osm_url": "https://www.openstreetmap.org/way/1211639141",
    "layer": "osm-city-wall",
    "osm_tags": {
     "area": "yes",
     "barrier": "city_wall"
    }
   },
   "geometry": {
    "type": "Polygon",
    "coordinates": [
     [
      [
       98.9819595,
       18.7815692
      ],
      [
       98.9819576,
       18.781516
      ],
      [
       98.9817016,
       18.7815243
      ],
      [
       98.9817035,
       18.7815774
      ],
      [
       98.9819595,
       18.7815692
      ]
     ]
    ]
   }
  }
 ]
}